CCSDS_OMM_VERS = 2.0
CREATION_DATE  = 
ORIGINATOR     = 

OBJECT_NAME    = ATLAS CENTAUR R/B
OBJECT_ID      = 1972-065B
CENTER_NAME    = EARTH
REF_FRAME      = TEME
TIME_SYSTEM    = UTC
MEAN_ELEMENT_THEORY = SGP/SGP4

EPOCH          = 2025-12-23T04:50:56.634432
MEAN_MOTION    = 14.77435148
ECCENTRICITY   = .00332201
INCLINATION    = 35.0025
RA_OF_ASC_NODE = 33.9111
ARG_OF_PERICENTER = 86.7972
MEAN_ANOMALY   = 273.6528

EPHEMERIS_TYPE = 0
CLASSIFICATION_TYPE = U
NORAD_CAT_ID   = 6155
ELEMENT_SET_NO = 999
REV_AT_EPOCH   = 82994
BSTAR          = .15557661E-3
MEAN_MOTION_DOT = .1111E-4
MEAN_MOTION_DDOT = 0

CCSDS_OMM_VERS = 2.0
CREATION_DATE  = 
ORIGINATOR     = 

OBJECT_NAME    = SL-8 R/B
OBJECT_ID      = 1975-112B
CENTER_NAME    = EARTH
REF_FRAME      = TEME
TIME_SYSTEM    = UTC
MEAN_ELEMENT_THEORY = SGP/SGP4

EPOCH          = 2025-12-23T18:02:33.985536
MEAN_MOTION    = 14.38152918
ECCENTRICITY   = .00166844
INCLINATION    = 74.0591
RA_OF_ASC_NODE = 158.6024
ARG_OF_PERICENTER = 268.8017
MEAN_ANOMALY   = 91.1225

EPHEMERIS_TYPE = 0
CLASSIFICATION_TYPE = U
NORAD_CAT_ID   = 8459
ELEMENT_SET_NO = 999
REV_AT_EPOCH   = 62095
BSTAR          = .11957992E-3
MEAN_MOTION_DOT = .337E-5
MEAN_MOTION_DDOT = 0

CCSDS_OMM_VERS = 2.0
CREATION_DATE  = 
ORIGINATOR     = 

OBJECT_NAME    = SL-3 R/B
OBJECT_ID      = 1977-057B
CENTER_NAME    = EARTH
REF_FRAME      = TEME
TIME_SYSTEM    = UTC
MEAN_ELEMENT_THEORY = SGP/SGP4

EPOCH          = 2025-12-23T23:23:35.095200
MEAN_MOTION    = 15.43208980
ECCENTRICITY   = .00072129
INCLINATION    = 97.5691
RA_OF_ASC_NODE = 161.7424
ARG_OF_PERICENTER = 188.1982
MEAN_ANOMALY   = 171.9148

EPHEMERIS_TYPE = 0
CLASSIFICATION_TYPE = U
NORAD_CAT_ID   = 10114
ELEMENT_SET_NO = 999
REV_AT_EPOCH   = 65664
BSTAR          = .29290756E-3
MEAN_MOTION_DOT = .12925E-3
MEAN_MOTION_DDOT = 0

CCSDS_OMM_VERS = 2.0
CREATION_DATE  = 
ORIGINATOR     = 

OBJECT_NAME    = SEASAT 1
OBJECT_ID      = 1978-064A
CENTER_NAME    = EARTH
REF_FRAME      = TEME
TIME_SYSTEM    = UTC
MEAN_ELEMENT_THEORY = SGP/SGP4

EPOCH          = 2025-12-23T19:40:24.544992
MEAN_MOTION    = 14.46072663
ECCENTRICITY   = .00013711
INCLINATION    = 108.0137
RA_OF_ASC_NODE = 326.2804
ARG_OF_PERICENTER = 254.6705
MEAN_ANOMALY   = 105.4289

EPHEMERIS_TYPE = 0
CLASSIFICATION_TYPE = U
NORAD_CAT_ID   = 10967
ELEMENT_SET_NO = 999
REV_AT_EPOCH   = 49554
BSTAR          = .13362811E-3
MEAN_MOTION_DOT = .34E-5
MEAN_MOTION_DDOT = 0

CCSDS_OMM_VERS = 2.0
CREATION_DATE  = 
ORIGINATOR     = 

OBJECT_NAME    = SL-14 R/B
OBJECT_ID      = 1979-011B
CENTER_NAME    = EARTH
REF_FRAME      = TEME
TIME_SYSTEM    = UTC
MEAN_ELEMENT_THEORY = SGP/SGP4

EPOCH          = 2025-12-23T20:31:59.016288
MEAN_MOTION    = 14.91782708
ECCENTRICITY   = .00149636
INCLINATION    = 82.5234
RA_OF_ASC_NODE = 168.5015
ARG_OF_PERICENTER = 314.8323
MEAN_ANOMALY   = 45.1680

EPHEMERIS_TYPE = 0
CLASSIFICATION_TYPE = U
NORAD_CAT_ID   = 11267
ELEMENT_SET_NO = 999
REV_AT_EPOCH   = 51747
BSTAR          = .62072182E-4
MEAN_MOTION_DOT = .652E-5
MEAN_MOTION_DDOT = 0

CCSDS_OMM_VERS = 2.0
CREATION_DATE  = 
ORIGINATOR     = 

OBJECT_NAME    = SL-8 R/B
OBJECT_ID      = 1979-089B
CENTER_NAME    = EARTH
REF_FRAME      = TEME
TIME_SYSTEM    = UTC
MEAN_ELEMENT_THEORY = SGP/SGP4

EPOCH          = 2025-12-23T22:25:20.980704
MEAN_MOTION    = 14.42290517
ECCENTRICITY   = .00146807
INCLINATION    = 74.0677
RA_OF_ASC_NODE = 231.2607
ARG_OF_PERICENTER = 60.9876
MEAN_ANOMALY   = 299.2749

EPHEMERIS_TYPE = 0
CLASSIFICATION_TYPE = U
NORAD_CAT_ID   = 11574
ELEMENT_SET_NO = 999
REV_AT_EPOCH   = 42518
BSTAR          = .80849148E-4
MEAN_MOTION_DOT = .241E-5
MEAN_MOTION_DDOT = 0

CCSDS_OMM_VERS = 2.0
CREATION_DATE  = 
ORIGINATOR     = 

OBJECT_NAME    = SL-14 R/B
OBJECT_ID      = 1980-005B
CENTER_NAME    = EARTH
REF_FRAME      = TEME
TIME_SYSTEM    = UTC
MEAN_ELEMENT_THEORY = SGP/SGP4

EPOCH          = 2025-12-23T19:39:06.484320
MEAN_MOTION    = 14.90803861
ECCENTRICITY   = .0017149
INCLINATION    = 82.5140
RA_OF_ASC_NODE = 19.1911
ARG_OF_PERICENTER = 59.7570
MEAN_ANOMALY   = 300.5344

EPHEMERIS_TYPE = 0
CLASSIFICATION_TYPE = U
NORAD_CAT_ID   = 11672
ELEMENT_SET_NO = 999
REV_AT_EPOCH   = 46518
BSTAR          = .5102974E-4
MEAN_MOTION_DOT = .529E-5
MEAN_MOTION_DDOT = 0

CCSDS_OMM_VERS = 2.0
CREATION_DATE  = 
ORIGINATOR     = 

OBJECT_NAME    = SL-8 R/B
OBJECT_ID      = 1981-003B
CENTER_NAME    = EARTH
REF_FRAME      = TEME
TIME_SYSTEM    = UTC
MEAN_ELEMENT_THEORY = SGP/SGP4

EPOCH          = 2025-12-23T18:12:24.325632
MEAN_MOTION    = 15.07350921
ECCENTRICITY   = .02780437
INCLINATION    = 82.9334
RA_OF_ASC_NODE = 0.0630
ARG_OF_PERICENTER = 82.4052
MEAN_ANOMALY   = 280.8662

EPHEMERIS_TYPE = 0
CLASSIFICATION_TYPE = U
NORAD_CAT_ID   = 12139
ELEMENT_SET_NO = 999
REV_AT_EPOCH   = 30322
BSTAR          = .44921364E-3
MEAN_MOTION_DOT = .16984E-3
MEAN_MOTION_DDOT = 0

CCSDS_OMM_VERS = 2.0
CREATION_DATE  = 
ORIGINATOR     = 

OBJECT_NAME    = SL-3 R/B
OBJECT_ID      = 1981-046B
CENTER_NAME    = EARTH
REF_FRAME      = TEME
TIME_SYSTEM    = UTC
MEAN_ELEMENT_THEORY = SGP/SGP4

EPOCH          = 2025-12-23T19:22:29.632224
MEAN_MOTION    = 15.39825299
ECCENTRICITY   = .00181783
INCLINATION    = 81.2319
RA_OF_ASC_NODE = 20.6952
ARG_OF_PERICENTER = 283.9002
MEAN_ANOMALY   = 76.0217

EPHEMERIS_TYPE = 0
CLASSIFICATION_TYPE = U
NORAD_CAT_ID   = 12465
ELEMENT_SET_NO = 999
REV_AT_EPOCH   = 42674
BSTAR          = .27964161E-3
MEAN_MOTION_DOT = .11187E-3
MEAN_MOTION_DDOT = 0

CCSDS_OMM_VERS = 2.0
CREATION_DATE  = 
ORIGINATOR     = 

OBJECT_NAME    = SL-3 R/B
OBJECT_ID      = 1981-103B
CENTER_NAME    = EARTH
REF_FRAME      = TEME
TIME_SYSTEM    = UTC
MEAN_ELEMENT_THEORY = SGP/SGP4

EPOCH          = 2025-12-23T21:57:17.282304
MEAN_MOTION    = 15.20359675
ECCENTRICITY   = .00126423
INCLINATION    = 81.1606
RA_OF_ASC_NODE = 302.2649
ARG_OF_PERICENTER = 173.6002
MEAN_ANOMALY   = 186.5393

EPHEMERIS_TYPE = 0
CLASSIFICATION_TYPE = U
NORAD_CAT_ID   = 12904
ELEMENT_SET_NO = 999
REV_AT_EPOCH   = 96171
BSTAR          = .28750128E-3
MEAN_MOTION_DOT = .6294E-4
MEAN_MOTION_DDOT = 0

CCSDS_OMM_VERS = 2.0
CREATION_DATE  = 
ORIGINATOR     = 

OBJECT_NAME    = SL-3 R/B
OBJECT_ID      = 1982-013B
CENTER_NAME    = EARTH
REF_FRAME      = TEME
TIME_SYSTEM    = UTC
MEAN_ELEMENT_THEORY = SGP/SGP4

EPOCH          = 2025-12-23T22:59:09.153312
MEAN_MOTION    = 15.21180503
ECCENTRICITY   = .00240856
INCLINATION    = 81.1744
RA_OF_ASC_NODE = 249.4788
ARG_OF_PERICENTER = 74.9718
MEAN_ANOMALY   = 285.4176

EPHEMERIS_TYPE = 0
CLASSIFICATION_TYPE = U
NORAD_CAT_ID   = 13068
ELEMENT_SET_NO = 999
REV_AT_EPOCH   = 39283
BSTAR          = .1999695E-3
MEAN_MOTION_DOT = .4517E-4
MEAN_MOTION_DDOT = 0

CCSDS_OMM_VERS = 2.0
CREATION_DATE  = 
ORIGINATOR     = 

OBJECT_NAME    = SL-3 R/B
OBJECT_ID      = 1982-039B
CENTER_NAME    = EARTH
REF_FRAME      = TEME
TIME_SYSTEM    = UTC
MEAN_ELEMENT_THEORY = SGP/SGP4

EPOCH          = 2025-12-23T21:47:11.685696
MEAN_MOTION    = 15.09585919
ECCENTRICITY   = .0029402
INCLINATION    = 81.1715
RA_OF_ASC_NODE = 303.2482
ARG_OF_PERICENTER = 214.2911
MEAN_ANOMALY   = 145.6417

EPHEMERIS_TYPE = 0
CLASSIFICATION_TYPE = U
NORAD_CAT_ID   = 13154
ELEMENT_SET_NO = 999
REV_AT_EPOCH   = 37020
BSTAR          = .19155114E-3
MEAN_MOTION_DOT = .313E-4
MEAN_MOTION_DDOT = 0

