ATLAS CENTAUR R/B       
1 06155U 72065B   25357.20204438  .00001111  00000+0  15558-3 0  9992
2 06155  35.0025  33.9111 0033220  86.7972 273.6528 14.77435148829940
SL-8 R/B                
1 08459U 75112B   25357.75178224  .00000337  00000+0  11958-3 0  9999
2 08459  74.0591 158.6024 0016684 268.8017  91.1225 14.38152918620951
SL-3 R/B                
1 10114U 77057B   25357.97471175  .00012925  00000+0  29291-3 0  9990
2 10114  97.5691 161.7424 0007212 188.1982 171.9148 15.43208980656648
SEASAT 1                
1 10967U 78064A   25357.81972853  .00000340  00000+0  13363-3 0  9998
2 10967 108.0137 326.2804 0001371 254.6705 105.4289 14.46072663495546
SL-14 R/B               
1 11267U 79011B   25357.85554417  .00000652  00000+0  62072-4 0  9999
2 11267  82.5234 168.5015 0014963 314.8323  45.1680 14.91782708517471
SL-8 R/B                
1 11574U 79089B   25357.93427061  .00000241  00000+0  80849-4 0  9994
2 11574  74.0677 231.2607 0014680  60.9876 299.2749 14.42290517425184
SL-14 R/B               
1 11672U 80005B   25357.81882505  .00000529  00000+0  51030-4 0  9997
2 11672  82.5140  19.1911 0017149  59.7570 300.5344 14.90803861465189
SL-8 R/B                
1 12139U 81003B   25357.75861488  .00016984  00000+0  44921-3 0  9997
2 12139  82.9334   0.0630 0278043  82.4052 280.8662 15.07350921303226
SL-3 R/B                
1 12465U 81046B   25357.80728741  .00011187  00000+0  27964-3 0  9994
2 12465  81.2319  20.6952 0018178 283.9002  76.0217 15.39825299426746
SL-3 R/B                
1 12904U 81103B   25357.91478336  .00006294  00000+0  28750-3 0  9997
2 12904  81.1606 302.2649 0012642 173.6002 186.5393 15.20359675961712
SL-3 R/B                
1 13068U 82013B   25357.95774483  .00004517  00000+0  19997-3 0  9995
2 13068  81.1744 249.4788 0024085  74.9718 285.4176 15.21180503392836
SL-3 R/B                
1 13154U 82039B   25357.90777414  .00003130  00000+0  19155-3 0  9997
2 13154  81.1715 303.2482 0029402 214.2911 145.6417 15.09585919370200
